[{"OBJECT_NAME":"STARLINK-30933","OBJECT_ID":"2023-180J","EPOCH":"2026-03-09T14:00:51.710976","MEAN_MOTION":15.27584539,"ECCENTRICITY":3.41e-5,"INCLINATION":42.9954,"RA_OF_ASC_NODE":267.3407,"ARG_OF_PERICENTER":347.1616,"MEAN_ANOMALY":12.9227,"EPHEMERIS_TYPE":0,"CLASSIFICATION_TYPE":"U","NORAD_CAT_ID":58410,"ELEMENT_SET_NO":999,"REV_AT_EPOCH":12932,"BSTAR":-0.00020111,"MEAN_MOTION_DOT":-5.792e-5,"MEAN_MOTION_DDOT":0},{"OBJECT_NAME":"COSMOS 2588","OBJECT_ID":"2025-109A","EPOCH":"2026-03-09T19:28:59.107008","MEAN_MOTION":15.29122656,"ECCENTRICITY":0.0005019,"INCLINATION":72.9704,"RA_OF_ASC_NODE":73.5401,"ARG_OF_PERICENTER":308.678,"MEAN_ANOMALY":51.3966,"EPHEMERIS_TYPE":0,"CLASSIFICATION_TYPE":"U","NORAD_CAT_ID":64095,"ELEMENT_SET_NO":999,"REV_AT_EPOCH":4442,"BSTAR":0.00032611,"MEAN_MOTION_DOT":9.169e-5,"MEAN_MOTION_DDOT":0}]
